STARLINK-1549_new
1 16074C 20055AZ  21326.14323126 -.00019130  00000-0 -12816-2 0  3269
2 16074  53.0539 298.0998 0001580  60.0565 239.4551 15.06420261    16
STARLINK-1549_old
1 26074C 20055AZ  21325.18062201  .00002843  00000-0  19047-3 0  3250
2 26074  53.0538 302.4210 0001591  59.5515  56.8070 15.06394325    10
